MOZHAETS 4 (RS-22)      
1 27939U 03042A   25323.61808763  .00001907  00000+0  30585-3 0  9993
2 27939  98.3362 137.2051 0010755 208.3675 240.4154 14.72876625184697
IRS-P6 (RESOURCESAT-1)  
1 28051U 03046A   25323.60086774  .00000254  00000+0  99364-4 0  9997
2 28051  98.2212   5.0761 0063053 250.7831 264.4685 14.36059369150449
SAUDISAT 2              
1 28371U 04025F   25323.44609566  .00000463  00000+0  11482-3 0  9998
2 28371  98.5405 313.1620 0023978 218.9348 141.0123 14.56495037135212
COSMOS 2407             
1 28380U 04028A   25323.26943505  .00000087  00000+0  72645-4 0  9996
2 28380  82.9620 230.2674 0040346 118.3957 356.9785 13.76309952 71001
COSMOS 2414             
1 28521U 05002A   25323.60566798  .00000103  00000+0  73447-4 0  9999
2 28521  82.9513 202.1508 0039368 205.4322 154.4906 13.87898693 54744
INMARSAT 4-F1           
1 28628U 05009A   25323.56517743  .00000051  00000+0  00000+0 0  9997
2 28628   4.8875  42.5128 0003493 201.5440 196.3563  1.00271771 75570
HAMSAT (VO-52)          
1 28650U 05017B   25323.46235300  .00005975  00000+0  39902-3 0  9993
2 28650  98.0030 332.8504 0021148  30.5588 329.6866 15.07232564115140
NOAA 18                 
1 28654U 05018A   25323.62638151  .00000141  00000+0  98086-4 0  9996
2 28654  98.8317  41.1790 0014629  30.4559 329.7460 14.13669584 56709
SJ-7                    
1 28737U 05024A   25323.51537719  .00008414  00000+0  41968-3 0  9998
2 28737  97.7504 343.3022 0018424  43.4893 316.7789 15.17640166116183
CUBESAT XI-V            
1 28895U 05043F   25323.39525547  .00002224  00000+0  36404-3 0  9998
2 28895  98.2711 110.0826 0014919 147.7569 212.4552 14.71766936 70887
CLOUDSAT                
1 29107U 06016A   25323.55265130  .00001617  00000+0  19298-3 0  9990
2 29107  98.4156 344.0328 0004136 297.2873  62.7919 14.85786199 43379
CALIPSO                 
1 29108U 06016B   25323.58750031  .00001657  00000+0  29333-3 0  9998
2 29108  98.4524 327.1289 0001032 105.6248 254.5070 14.68750798 42282
HINODE (SOLAR-B)        
1 29479U 06041A   25323.51926407  .00000911  00000+0  16626-3 0  9995
2 29479  98.0663 337.6958 0016509 230.6856 129.2886 14.68246509 24105
METOP-A                 
1 29499U 06044A   25323.58913154  .00001705  00000+0  20479-3 0  9995
2 29499  98.3311  58.9901 0177092  17.7140 105.5370 14.74911058994540
SHIJIAN-6 02B (SJ-6 02B)
1 29506U 06046B   25323.61408571  .00002079  00000+0  16975-3 0  9993
2 29506  97.6876 349.4679 0015405  47.0437 313.2075 15.00417149 39307
DMSP 5D-3 F17 (USA 191) 
1 29522U 06050A   25323.57597218  .00000209  00000+0  13045-3 0  9996
2 29522  98.7398 329.4467 0009202 297.6471  62.3768 14.14905378982777
LAPAN-TUBSAT            
1 29709U 07001A   25323.61127578  .00000901  00000+0  11051-3 0  9997
2 29709  98.1243 313.2946 0013021 142.7912 217.4208 14.85621870 20038
HAIYANG-1B              
1 31113U 07010A   25323.44973626  .00000154  00000+0  74240-4 0  9993
2 31113  98.3298 308.6924 0014687 101.9792 258.3039 14.30954223970635
BEIDOU-2 M1             
1 31115U 07011A   25323.06915405  .00000004  00000+0  00000+0 0  9997
2 31115  51.0051 226.2644 0002512   4.2849 355.7796  1.77349452 72427
CAPE-1                  
1 31130U 07012P   25323.62819601  .00002473  00000+0  45695-3 0  9993
2 31130  98.4202 287.9485 0084948   6.1987 354.0245 14.64070533987675
CBERS 2B                
1 32062U 07042A   25323.62441122  .00000352  00000+0  12163-3 0  9998
2 32062  98.3681 267.2431 0029934 245.0940 288.0826 14.41320051954492
COSMO-SKYMED 2          
1 32376U 07059A   25323.60847297  .00000740  00000+0  99536-4 0  9996
2 32376  97.8821 145.2793 0001521  87.3528 272.7859 14.82145560970957
CARTOSAT-2A             
1 32783U 08021A   25323.59901058  .00001292  00000+0  18196-3 0  9997
2 32783  97.7964  14.1425 0013150  74.7582 285.5082 14.78873915947820
CUTE-1.7+APD II (CO-65) 
1 32785U 08021C   25323.59584047  .00006521  00000+0  44343-3 0  9997
2 32785  97.8061 296.3667 0010599  31.5036 328.6823 15.06641663953602
COMPASS-1               
1 32787U 08021E   25323.46904753  .00529111  10781-3  18635-2 0  9995
2 32787  97.6336 325.4952 0007867 119.9445 240.2608 15.89072615957607
SEEDS II (CO-66)        
1 32791U 08021J   25323.47396091  .00017048  00000+0  70198-3 0  9994
2 32791  97.7420 307.8411 0003153  12.4901 347.6413 15.24186791955254
YUBILEINY (RS-30)       
1 32953U 08025A   25323.61324531  .00000024  00000+0  10365-3 0  9990
2 32953  82.4995 125.8075 0019729  50.8882 309.3949 12.43171065793655
FENGYUN 3A              
1 32958U 08026A   25323.56594679  .00000139  00000+0  86412-4 0  9996
2 32958  98.6659 263.5849 0009094  18.8559 341.2952 14.19503926905669
HUANJING 1A (HJ-1A)     
1 33320U 08041A   25323.62589193  .00001923  00000+0  24038-3 0  9996
2 33320  97.6526 312.8935 0020731 105.1640 255.1869 14.83293779927332
HUANJING 1B (HJ-1B)     
1 33321U 08041B   25323.64315160  .00001499  00000+0  18976-3 0  9992
2 33321  97.6389 316.6666 0037424 149.0179 211.3253 14.82739247927351
SHIJIAN-6 03A (SJ-6 03A)
1 33408U 08053A   25323.60122251  .00008541  00000+0  46889-3 0  9993
2 33408  97.8638 344.7753 0012601  20.1387 340.0339 15.14332737931219
SHIJIAN-6 03B (SJ-6 03B)
1 33409U 08053B   25323.63515605  .00002375  00000+0  17930-3 0  9990
2 33409  97.8707 335.0708 0020683  32.4881 327.7612 15.03257747931259
CHUANGXIN 1-02 (CX-1-02)
1 33434U 08056B   25323.61620253  .00000134  00000+0  68659-4 0  9991
2 33434  98.6349 346.7637 0014924  39.5932 320.6337 14.30094585888664
STARS (KUKAI)           
1 33498U 09002G   25323.56393744  .00005071  00000+0  48602-3 0  9999
2 33498  98.1341 257.9193 0009803 133.0509 227.1533 14.93581894907160
KKS-1 (KISEKI)          
1 33499U 09002H   25323.58932181  .00002080  00000+0  26706-3 0  9994
2 33499  98.1160 237.8519 0006558 246.8006 113.2516 14.82307752905136
NOAA 19                 
1 33591U 09005A   25323.58839613  .00000072  00000+0  62415-4 0  9993
2 33591  98.9798  29.0622 0012808 262.5509  97.4207 14.13429108864877
UK-DMC 2                
1 35683U 09041C   25323.65566506  .00001377  00000+0  20925-3 0  9991
2 35683  97.8552  99.2137 0001096  97.7137 262.4197 14.75550212875669
METEOR-M 1              
1 35865U 09049A   25323.62922297  .00000148  00000+0  85198-4 0  9990
2 35865  98.7096 282.9666 0002115 167.5471 192.5760 14.23085327839440
OCEANSAT-2              
1 35931U 09051A   25323.60004814  .00000077  00000+0  78261-4 0  9995
2 35931  98.2239 326.5447 0017151 104.6490 255.6580 13.99627645850013
SWISSCUBE               
1 35932U 09051B   25323.29444719  .00001656  00000+0  34107-3 0  9997
2 35932  98.4141 222.4555 0007456 136.9872 223.1912 14.61859104858486
BEESAT-1                
1 35933U 09051C   25323.26903264  .00001384  00000+0  29082-3 0  9994
2 35933  98.4072 222.4863 0005683 147.0464 213.1091 14.61194141858527
ITUPSAT1                
1 35935U 09051E   25323.55837747  .00001151  00000+0  25023-3 0  9993
2 35935  98.4161 222.1805 0007672 159.5402 200.6106 14.59957124858142
DMSP 5D-3 F18 (USA 210) 
1 35951U 09057A   25323.59961568  .00000259  00000+0  15750-3 0  9994
2 35951  98.8806 300.1194 0011843 123.0795 237.1516 14.14750508829959
PROBA-2                 
1 36037U 09059B   25323.46370253  .00000437  00000+0  11274-3 0  9998
2 36037  98.2379 144.7855 0012639 203.9715 156.0895 14.54684350851032
YAOGAN-7                
1 36110U 09069A   25323.60627755  .00000814  00000+0  12051-3 0  9992
2 36110  98.0309 205.4451 0024762 358.1934   1.9183 14.77681919858676
XIWANG-1 (HOPE-1)       
1 36122U 09072B   25323.63779366 -.00000058  00000+0 -36760-4 0  9994
2 36122 100.3736 276.1111 0007544 357.4495   2.6578 13.16431464765438
RADUGA-1M 2             
1 36358U 10002A   25323.57454477  .00000042  00000+0  00000+0 0  9990
2 36358   3.0728  81.4845 0006932 222.9292 174.5292  0.98967314 47957
COSMOS 2463             
1 36519U 10017A   25323.32654133  .00000073  00000+0  64543-4 0  9990
2 36519  82.9631  43.9142 0035866 354.6308  70.0272 13.71646136779161
CARTOSAT-2B             
1 36795U 10035A   25323.56861846  .00001093  00000+0  15553-3 0  9992
2 36795  97.7886  13.3477 0012297 145.7842 214.4164 14.78735762828879
AISSAT 1                
1 36797U 10035C   25323.63584249  .00003548  00000+0  32091-3 0  9994
2 36797  98.1111 210.3879 0010232  39.6189 320.5777 14.96089233832873
TISAT 1                 
1 36799U 10035E   25323.51653535  .00017828  00000+0  77622-3 0  9993
2 36799  98.0580 248.2248 0000133 254.0143 106.1076 15.22295270835701
YAOGAN-10               
1 36834U 10038A   25323.67003572  .00001004  00000+0  12550-3 0  9991
2 36834  97.9162 343.6629 0001586  89.0107  50.0939 14.84519894826115
SHIJIAN-6 04B (SJ-6 04B)
1 37180U 10051B   25323.62975286  .00001764  00000+0  15155-3 0  9993
2 37180  97.8702 321.9874 0008705 301.1765  58.8603 14.98757324824285
FENGYUN 3B              
1 37214U 10059A   25323.63813127  .00000131  00000+0  91081-4 0  9995
2 37214  98.9941   3.4505 0022965  62.0210  96.4632 14.14780749777793
COSMO-SKYMED 4          
1 37216U 10060A   25323.62112105  .00000824  00000+0  11009-3 0  9996
2 37216  97.8818 145.2917 0001513  88.8235 271.3152 14.82146143813529
O/OREOS (USA 219)       
1 37224U 10062C   25323.63801277  .00002481  00000+0  24720-3 0  9998
2 37224  71.9709 194.5934 0012933 109.0455 251.2118 14.92498797 85362
ELEKTRO-L 1 (GOMS 2)    
1 37344U 11001A   25323.15408530 -.00000254  00000+0  00000+0 0  9995
2 37344   9.2090  56.6107 0002555  40.3919 336.5427  1.00214517 54382
RESOURCESAT-2           
1 37387U 11015A   25323.62957100  .00000085  00000+0  59040-4 0  9995
2 37387  98.7908  27.2821 0006990 100.8872 259.3092 14.21590418756400
YOUTHSAT                
1 37388U 11015B   25323.51649634  .00000306  00000+0  14699-3 0  9990
2 37388  98.3440 302.3454 0013463 235.4699 235.7813 14.25501898757769
